ONEWEB-0102             
1 47258U 20100A   25105.29182352  .00000440  00000+0  11888-2 0  9999
2 47258  87.8839  75.8213 0001826  86.6122 273.5215 13.12440086208609
ONEWEB-0109             
1 47259U 20100B   25105.29992272  .00000231  00000+0  60599-3 0  9992
2 47259  87.8840  75.7879 0001819  84.6003 275.5333 13.12442301208433
ONEWEB-0110             
1 47260U 20100C   25104.94468463 -.00000382  00000+0 -10970-2 0  9991
2 47260  87.8835  75.8466 0001867  81.5137 278.6203 13.12443477208557
ONEWEB-0111             
1 47261U 20100D   25105.28044489  .00000341  00000+0  91244-3 0  9995
2 47261  87.8841  75.7910 0001872  85.4262 274.7080 13.12445471208439
ONEWEB-0114             
1 47262U 20100E   25105.31128248 -.00000080  00000+0 -25882-3 0  9993
2 47262  87.8835  75.7876 0001673  92.3717 267.7603 13.12441652208390
ONEWEB-0117             
1 47263U 20100F   25105.30316196  .00000191  00000+0  49620-3 0  9991
2 47263  87.8841  75.7777 0001954  83.3075 276.8276 13.12443027208404
ONEWEB-0118             
1 47264U 20100G   25104.95441375 -.00000215  00000+0 -63408-3 0  9999
2 47264  87.8840  75.8489 0001949  95.0866 265.0485 13.12444881208554
ONEWEB-0119             
1 47265U 20100H   25105.28695040  .00000433  00000+0  11678-2 0  9998
2 47265  87.8838  75.8216 0001906  83.8712 276.2634 13.12443606208574
